OBJECT_NAME,OBJECT_ID,EPOCH,MEAN_MOTION,ECCENTRICITY,INCLINATION,RA_OF_ASC_NODE,ARG_OF_PERICENTER,MEAN_ANOMALY,EPHEMERIS_TYPE,CLASSIFICATION_TYPE,NORAD_CAT_ID,ELEMENT_SET_NO,REV_AT_EPOCH,BSTAR,MEAN_MOTION_DOT,MEAN_MOTION_DDOT
GPS BIIR-08,2003-005A,2024-01-20T14:56:37.550976,2.00558091,.0137706,55.1731,249.9079,46.2444,324.4860,0,U,27663,999,15369,0,.56E-6,0
GPS BIIR-13,2004-045A,2024-01-20T13:43:46.874784,2.00537925,.0164929,55.4431,0.1572,287.5890,251.7101,0,U,28474,999,14080,0,-.95E-6,0
GPS BIIR-14M,2005-038A,2024-01-20T14:19:40.610784,2.00565863,.0139025,55.6274,308.4236,282.6555,251.3149,0,U,28874,999,13421,0,-.84E-6,0
GOES 13,2006-018A,2024-01-20T13:09:42.661152,0.99155517,.0088033,2.2378,87.0713,248.5079,100.8639,0,U,29155,999,3455,0,-.224E-5,0
GPS BIIR-16M,2006-052A,2024-01-19T22:11:46.093056,2.00557676,.0087013,55.1987,248.9040,80.3573,280.6937,0,U,29601,999,12577,0,.53E-6,0
GPS BIIR-17M,2007-047A,2024-01-20T05:33:02.950560,2.00572108,.015228,53.5300,116.4238,73.5328,288.1337,0,U,32260,999,11918,0,-.5E-6,0
GPS BIIR-18M,2007-062A,2024-01-20T07:24:52.269984,2.00565757,.0024165,55.7632,309.2766,148.9521,35.4236,0,U,32384,999,11788,0,-.85E-6,0
GOES 14,2009-033A,2024-01-20T14:36:36.324000,1.00272380,.0000598,0.0712,227.7070,97.7744,264.5781,0,U,35491,999,5330,0,-.61E-6,0
GSAT0101 (GALILEO-PFM),2011-060A,2024-01-20T03:27:27.657504,1.70475796,.0003298,57.1243,5.5648,333.3981,26.5859,0,U,37846,999,7613,0,-.89E-6,0
GSAT0102 (GALILEO-FM2),2011-060B,2024-01-20T07:19:48.436608,1.70475215,.0005061,57.1249,5.5606,318.1814,186.8081,0,U,37847,999,7614,0,-.89E-6,0
LUCH 5A,2011-074B,2024-01-20T15:26:56.087808,1.00272942,.0003157,6.5013,87.3979,201.2183,229.4795,0,U,37951,999,4424,0,-.51E-6,0
METEOSAT-10 (MSG-3),2012-035B,2024-01-20T05:54:23.433984,1.00274456,.0001203,2.6353,59.5810,231.9161,276.2732,0,U,38552,999,4204,0,-.4E-7,0
GPS BIIF-3,2012-053A,2024-01-19T19:43:01.893216,2.00556123,.0148872,53.5147,179.5718,54.7158,306.6466,0,U,38833,999,8180,0,.76E-6,0
GSAT0103 (GALILEO-FM3),2012-055A,2024-01-19T14:19:10.795872,1.70473383,.0003785,55.3411,125.7186,252.2575,107.6824,0,U,38857,999,7015,0,-.25E-6,0
GSAT0104 (GALILEO-FM4),2012-055B,2024-01-20T03:39:36.979776,1.70473603,.0001748,55.3412,125.7049,224.7009,135.2642,0,U,38858,999,7002,0,-.3E-6,0
GPS BIIF-4,2013-023A,2024-01-20T04:27:51.854976,2.00563404,.0120742,55.2409,304.5811,42.2665,318.6777,0,U,39166,999,7825,0,-.78E-6,0
INSAT-3D,2013-038B,2024-01-20T11:27:20.798784,1.00271394,.0003204,0.0250,272.4818,9.9132,90.8433,0,U,39216,999,3826,0,-.152E-5,0
GPS BIIF-5,2014-008A,2024-01-20T04:32:07.463328,2.00559477,.0068464,53.5994,185.1339,215.7975,143.7285,0,U,39533,999,7205,0,.8E-6,0
GPS BIIF-7,2014-045A,2024-01-20T01:23:09.907584,2.00555731,.0026528,54.8671,123.5686,117.3761,242.8855,0,U,40105,999,6844,0,-.38E-6,0
GSAT0201 (GALILEO 5),2014-050A,2024-01-20T07:48:35.970048,1.85519510,.1605691,49.8049,309.0423,145.5445,226.0181,0,U,40128,999,6201,0,-.106E-5,0
GSAT0202 (GALILEO 6),2014-050B,2024-01-18T23:12:55.589184,1.85520189,.1603962,49.8244,308.1710,146.3013,225.0364,0,U,40129,999,6415,0,-.104E-5,0
